STARLINK-37255          
1 68554U 26070N   26103.25002315 -.01252803  46445-3 -35370-2 0  9992
2 68554  53.1589 211.2674 0000879  85.0133  81.7479 15.92824955  2938
STARLINK-37146          
1 68555U 26070P   26103.25002315 -.01243298  45725-3 -35428-2 0  9995
2 68555  53.1592 211.2808 0000938  83.1268  77.0935 15.92646438  2939
STARLINK-37144          
1 68556U 26070Q   26103.25002315 -.01257102  46813-3 -35178-2 0  9996
2 68556  53.1592 211.2525 0000916  91.2078  82.6380 15.92994665  2935
STARLINK-37210          
1 68557U 26070R   26103.25002315 -.01255486  46662-3 -35298-2 0  9995
2 68557  53.1591 211.2599 0000900  87.3046  83.2497 15.92904903  2932
STARLINK-37227          
1 68558U 26070S   26103.25002315 -.01262846  47245-3 -35174-2 0  9995
2 68558  53.1590 211.2458 0000931  85.7067  91.4604 15.93084452  2935
STARLINK-37294          
1 68559U 26070T   26103.25002315 -.01256942  46880-3 -34861-2 0  9992
2 68559  53.1590 211.2382 0000853  84.7799  95.9992 15.93164264  2935
STARLINK-37291          
1 68560U 26070U   26103.25002315 -.01256544  46895-3 -34684-2 0  9991
2 68560  53.1589 211.2316 0000842 101.1080  82.8930 15.93254950  2936
STARLINK-37114          
1 68561U 26070V   26103.25002315 -.01261732  47292-3 -34655-2 0  9997
2 68561  53.1588 211.2251 0000826  87.3660  99.6772 15.93350266  2932
STARLINK-37233          
1 68562U 26070W   26103.25002315 -.01259841  47247-3 -34276-2 0  9995
2 68562  53.1589 211.2117 0000890  82.2810 111.2886 15.93529777  2939
STARLINK-36238          
1 68563U 26070X   26103.25002315 -.01264839  47549-3 -34569-2 0  9999
2 68563  53.1588 211.2184 0000934  84.5420 105.6811 15.93444261  2887
STARLINK-37008          
1 68564U 26070Y   26103.25002315 -.01266157  47723-3 -34282-2 0  9991
2 68564  53.1589 211.2046 0000851  85.8350 111.1825 15.93622289  2931
STARLINK-37161          
1 68565U 26070Z   26103.25002315 -.01269134  47971-3 -34194-2 0  9997
2 68565  53.1587 211.1975 0000876  84.2489 116.0926 15.93715307  2933
STARLINK-37212          
1 68566U 26070AA  26103.25002315 -.01266139  47811-3 -33938-2 0  9998
2 68566  53.1587 211.1920 0000847  84.1873 118.7045 15.93812297  2935
STARLINK-37261          
1 68567U 26070AB  26103.25002315 -.01265602  47815-3 -33770-2 0  9991
2 68567  53.1586 211.1843 0000870  85.6257 121.0186 15.93897983  2935
STARLINK-37283          
1 68568U 26070AC  26103.25002315 -.01601983  00000+0 -68713-2 0  9994
2 68568  53.1594 211.4185 0000878  83.7406  10.3205 15.87116325  2939
STARLINK-37256          
1 68569U 26070AD  26103.25002315 -.01514713  00000+0 -63852-2 0  9998
2 68569  53.1595 211.4316 0000825  86.6430   1.0984 15.87309758  2933
