[{"OBJECT_NAME":"STARLINK-37255","OBJECT_ID":"2026-070N","EPOCH":"2026-04-13T06:00:02.000160","MEAN_MOTION":15.92824955,"ECCENTRICITY":8.795e-5,"INCLINATION":53.1589,"RA_OF_ASC_NODE":211.2674,"ARG_OF_PERICENTER":85.0133,"MEAN_ANOMALY":81.7479,"EPHEMERIS_TYPE":0,"CLASSIFICATION_TYPE":"U","NORAD_CAT_ID":68554,"ELEMENT_SET_NO":999,"REV_AT_EPOCH":293,"BSTAR":-0.0035369662,"MEAN_MOTION_DOT":-0.01252803,"MEAN_MOTION_DDOT":0.00046444646},{"OBJECT_NAME":"STARLINK-37146","OBJECT_ID":"2026-070P","EPOCH":"2026-04-13T06:00:02.000160","MEAN_MOTION":15.92646438,"ECCENTRICITY":9.385e-5,"INCLINATION":53.1592,"RA_OF_ASC_NODE":211.2808,"ARG_OF_PERICENTER":83.1268,"MEAN_ANOMALY":77.0935,"EPHEMERIS_TYPE":0,"CLASSIFICATION_TYPE":"U","NORAD_CAT_ID":68555,"ELEMENT_SET_NO":999,"REV_AT_EPOCH":293,"BSTAR":-0.0035427582,"MEAN_MOTION_DOT":-0.01243298,"MEAN_MOTION_DDOT":0.00045725489},{"OBJECT_NAME":"STARLINK-37144","OBJECT_ID":"2026-070Q","EPOCH":"2026-04-13T06:00:02.000160","MEAN_MOTION":15.92994665,"ECCENTRICITY":9.163e-5,"INCLINATION":53.1592,"RA_OF_ASC_NODE":211.2525,"ARG_OF_PERICENTER":91.2078,"MEAN_ANOMALY":82.638,"EPHEMERIS_TYPE":0,"CLASSIFICATION_TYPE":"U","NORAD_CAT_ID":68556,"ELEMENT_SET_NO":999,"REV_AT_EPOCH":293,"BSTAR":-0.0035177796,"MEAN_MOTION_DOT":-0.01257102,"MEAN_MOTION_DDOT":0.00046812911},{"OBJECT_NAME":"STARLINK-37210","OBJECT_ID":"2026-070R","EPOCH":"2026-04-13T06:00:02.000160","MEAN_MOTION":15.92904903,"ECCENTRICITY":9.006e-5,"INCLINATION":53.1591,"RA_OF_ASC_NODE":211.2599,"ARG_OF_PERICENTER":87.3046,"MEAN_ANOMALY":83.2497,"EPHEMERIS_TYPE":0,"CLASSIFICATION_TYPE":"U","NORAD_CAT_ID":68557,"ELEMENT_SET_NO":999,"REV_AT_EPOCH":293,"BSTAR":-0.0035297977,"MEAN_MOTION_DOT":-0.01255486,"MEAN_MOTION_DDOT":0.00046662363},{"OBJECT_NAME":"STARLINK-37227","OBJECT_ID":"2026-070S","EPOCH":"2026-04-13T06:00:02.000160","MEAN_MOTION":15.93084452,"ECCENTRICITY":9.313e-5,"INCLINATION":53.159,"RA_OF_ASC_NODE":211.2458,"ARG_OF_PERICENTER":85.7067,"MEAN_ANOMALY":91.4604,"EPHEMERIS_TYPE":0,"CLASSIFICATION_TYPE":"U","NORAD_CAT_ID":68558,"ELEMENT_SET_NO":999,"REV_AT_EPOCH":293,"BSTAR":-0.0035174038,"MEAN_MOTION_DOT":-0.01262846,"MEAN_MOTION_DDOT":0.00047244557},{"OBJECT_NAME":"STARLINK-37294","OBJECT_ID":"2026-070T","EPOCH":"2026-04-13T06:00:02.000160","MEAN_MOTION":15.93164264,"ECCENTRICITY":8.533e-5,"INCLINATION":53.159,"RA_OF_ASC_NODE":211.2382,"ARG_OF_PERICENTER":84.7799,"MEAN_ANOMALY":95.9992,"EPHEMERIS_TYPE":0,"CLASSIFICATION_TYPE":"U","NORAD_CAT_ID":68559,"ELEMENT_SET_NO":999,"REV_AT_EPOCH":293,"BSTAR":-0.0034861348,"MEAN_MOTION_DOT":-0.01256942,"MEAN_MOTION_DDOT":0.00046880101},{"OBJECT_NAME":"STARLINK-37291","OBJECT_ID":"2026-070U","EPOCH":"2026-04-13T06:00:02.000160","MEAN_MOTION":15.9325495,"ECCENTRICITY":8.42e-5,"INCLINATION":53.1589,"RA_OF_ASC_NODE":211.2316,"ARG_OF_PERICENTER":101.108,"MEAN_ANOMALY":82.893,"EPHEMERIS_TYPE":0,"CLASSIFICATION_TYPE":"U","NORAD_CAT_ID":68560,"ELEMENT_SET_NO":999,"REV_AT_EPOCH":293,"BSTAR":-0.003468427,"MEAN_MOTION_DOT":-0.01256544,"MEAN_MOTION_DDOT":0.00046894974},{"OBJECT_NAME":"STARLINK-37114","OBJECT_ID":"2026-070V","EPOCH":"2026-04-13T06:00:02.000160","MEAN_MOTION":15.93350266,"ECCENTRICITY":8.268e-5,"INCLINATION":53.1588,"RA_OF_ASC_NODE":211.2251,"ARG_OF_PERICENTER":87.366,"MEAN_ANOMALY":99.6772,"EPHEMERIS_TYPE":0,"CLASSIFICATION_TYPE":"U","NORAD_CAT_ID":68561,"ELEMENT_SET_NO":999,"REV_AT_EPOCH":293,"BSTAR":-0.0034654693,"MEAN_MOTION_DOT":-0.01261732,"MEAN_MOTION_DDOT":0.00047292324},{"OBJECT_NAME":"STARLINK-37233","OBJECT_ID":"2026-070W","EPOCH":"2026-04-13T06:00:02.000160","MEAN_MOTION":15.93529777,"ECCENTRICITY":8.909e-5,"INCLINATION":53.1589,"RA_OF_ASC_NODE":211.2117,"ARG_OF_PERICENTER":82.281,"MEAN_ANOMALY":111.2886,"EPHEMERIS_TYPE":0,"CLASSIFICATION_TYPE":"U","NORAD_CAT_ID":68562,"ELEMENT_SET_NO":999,"REV_AT_EPOCH":293,"BSTAR":-0.003427569,"MEAN_MOTION_DOT":-0.01259841,"MEAN_MOTION_DDOT":0.00047246981},{"OBJECT_NAME":"STARLINK-36238","OBJECT_ID":"2026-070X","EPOCH":"2026-04-13T06:00:02.000160","MEAN_MOTION":15.93444261,"ECCENTRICITY":9.341e-5,"INCLINATION":53.1588,"RA_OF_ASC_NODE":211.2184,"ARG_OF_PERICENTER":84.542,"MEAN_ANOMALY":105.6811,"EPHEMERIS_TYPE":0,"CLASSIFICATION_TYPE":"U","NORAD_CAT_ID":68563,"ELEMENT_SET_NO":999,"REV_AT_EPOCH":288,"BSTAR":-0.0034568872,"MEAN_MOTION_DOT":-0.01264839,"MEAN_MOTION_DDOT":0.00047548572},{"OBJECT_NAME":"STARLINK-37008","OBJECT_ID":"2026-070Y","EPOCH":"2026-04-13T06:00:02.000160","MEAN_MOTION":15.93622289,"ECCENTRICITY":8.514e-5,"INCLINATION":53.1589,"RA_OF_ASC_NODE":211.2046,"ARG_OF_PERICENTER":85.835,"MEAN_ANOMALY":111.1825,"EPHEMERIS_TYPE":0,"CLASSIFICATION_TYPE":"U","NORAD_CAT_ID":68564,"ELEMENT_SET_NO":999,"REV_AT_EPOCH":293,"BSTAR":-0.003428162,"MEAN_MOTION_DOT":-0.01266157,"MEAN_MOTION_DDOT":0.00047722697},{"OBJECT_NAME":"STARLINK-37161","OBJECT_ID":"2026-070Z","EPOCH":"2026-04-13T06:00:02.000160","MEAN_MOTION":15.93715307,"ECCENTRICITY":8.766e-5,"INCLINATION":53.1587,"RA_OF_ASC_NODE":211.1975,"ARG_OF_PERICENTER":84.2489,"MEAN_ANOMALY":116.0926,"EPHEMERIS_TYPE":0,"CLASSIFICATION_TYPE":"U","NORAD_CAT_ID":68565,"ELEMENT_SET_NO":999,"REV_AT_EPOCH":293,"BSTAR":-0.0034194328,"MEAN_MOTION_DOT":-0.01269134,"MEAN_MOTION_DDOT":0.00047971234},{"OBJECT_NAME":"STARLINK-37212","OBJECT_ID":"2026-070AA","EPOCH":"2026-04-13T06:00:02.000160","MEAN_MOTION":15.93812297,"ECCENTRICITY":8.474e-5,"INCLINATION":53.1587,"RA_OF_ASC_NODE":211.192,"ARG_OF_PERICENTER":84.1873,"MEAN_ANOMALY":118.7045,"EPHEMERIS_TYPE":0,"CLASSIFICATION_TYPE":"U","NORAD_CAT_ID":68566,"ELEMENT_SET_NO":999,"REV_AT_EPOCH":293,"BSTAR":-0.0033937957,"MEAN_MOTION_DOT":-0.01266139,"MEAN_MOTION_DDOT":0.00047811302},{"OBJECT_NAME":"STARLINK-37261","OBJECT_ID":"2026-070AB","EPOCH":"2026-04-13T06:00:02.000160","MEAN_MOTION":15.93897983,"ECCENTRICITY":8.701e-5,"INCLINATION":53.1586,"RA_OF_ASC_NODE":211.1843,"ARG_OF_PERICENTER":85.6257,"MEAN_ANOMALY":121.0186,"EPHEMERIS_TYPE":0,"CLASSIFICATION_TYPE":"U","NORAD_CAT_ID":68567,"ELEMENT_SET_NO":999,"REV_AT_EPOCH":293,"BSTAR":-0.0033769519,"MEAN_MOTION_DOT":-0.01265602,"MEAN_MOTION_DDOT":0.0004781504},{"OBJECT_NAME":"STARLINK-37283","OBJECT_ID":"2026-070AC","EPOCH":"2026-04-13T06:00:02.000160","MEAN_MOTION":15.87116325,"ECCENTRICITY":8.784e-5,"INCLINATION":53.1594,"RA_OF_ASC_NODE":211.4185,"ARG_OF_PERICENTER":83.7406,"MEAN_ANOMALY":10.3205,"EPHEMERIS_TYPE":0,"CLASSIFICATION_TYPE":"U","NORAD_CAT_ID":68568,"ELEMENT_SET_NO":999,"REV_AT_EPOCH":293,"BSTAR":-0.0068713042,"MEAN_MOTION_DOT":-0.01601983,"MEAN_MOTION_DDOT":0},{"OBJECT_NAME":"STARLINK-37256","OBJECT_ID":"2026-070AD","EPOCH":"2026-04-13T06:00:02.000160","MEAN_MOTION":15.87309758,"ECCENTRICITY":8.251e-5,"INCLINATION":53.1595,"RA_OF_ASC_NODE":211.4316,"ARG_OF_PERICENTER":86.643,"MEAN_ANOMALY":1.0984,"EPHEMERIS_TYPE":0,"CLASSIFICATION_TYPE":"U","NORAD_CAT_ID":68569,"ELEMENT_SET_NO":999,"REV_AT_EPOCH":293,"BSTAR":-0.0063852385,"MEAN_MOTION_DOT":-0.01514713,"MEAN_MOTION_DDOT":0}]
